405P/Lemmon,e,9.3651,3.3125,112.2464,3.609569,0.1437213,0.68918958,12.1709,03/19.0/2021,2000,g 17.5,4.0
# From MPEC 2021-F20
406P/Gibbs,e,1.2135,11.4724,352.3681,3.573614,0.1458957,0.54194588,26.8866,03/19.0/2021,2000,g 17.0,4.0
# From MPEC 2021-F20
407P/PANSTARRS-Fuls,e,4.8945,80.8326,92.4684,3.456868,0.1533486,0.38487469,63.1635,03/19.0/2021,2000,g 14.0,4.0
# From MPEC 2021-F20
408P/Novichonok-Gerke,e,19.3045,189.4948,225.7492,4.768285,0.0946588,0.27165874,306.8899,03/19.0/2021,2000,g 11.0,4.0
# From MPEC 2021-F20
409P/LONEOS-Hill,e,17.1188,143.6712,15.1348,6.049710,0.0662372,0.71006133,3.3007,03/19.0/2021,2000,g 14.0,4.0
# From MPEC 2021-F20
410P/NEAT-LINEAR,e,9.3937,139.9809,313.1000,6.629494,0.0577409,0.51021610,354.4227,03/19.0/2021,2000,g 12.5,4.0
# From MPEC 2021-F20
411P/Christensen,e,12.3773,77.6731,46.6865,5.818822,0.0702185,0.58088359,3.7586,03/19.0/2021,2000,g 13.5,4.0
# From MPEC 2021-F20
412P/WISE,e,8.9312,0.8489,155.9169,3.109878,0.1797169,0.47987167,18.6238,03/19.0/2021,2000,g 17.0,4.0
# From MPEC 2021-F20
413P/Larson,e,15.9772,39.0259,186.0331,3.711037,0.1378672,0.42337344,343.0165,03/19.0/2021,2000,g 14.0,4.0
# From MPEC 2021-BE3
414P/STEREO,e,23.3838,257.7896,210.7325,2.795068,0.2109189,0.81167771,11.0975,03/19.0/2021,2000,g 19.0,4.0
# From MPEC 2021-F20
415P/Tenagra,e,31.7882,160.2949,346.2587,4.115991,0.1180300,0.19484876,3.7578,03/19.0/2021,2000,g 12.0,4.0
# From MPEC 2021-F20
416P/Scotti,e,3.3612,355.8120,134.5274,4.013827,0.1225649,0.45439926,3.8610,03/19.0/2021,2000,g 15.5,4.0
# From MPEC 2021-F20
417P/NEOWISE,e,8.1310,111.3511,129.4565,3.347812,0.1609024,0.55433198,354.5017,03/19.0/2021,2000,g 16.5,4.0
# From MPEC 2021-F20
418P/LINEAR,e,5.7976,277.6620,307.0914,5.082555,0.0860163,0.66495515,341.7170,03/19.0/2021,2000,g 13.0,4.0
# From MPC107687
1I/`Oumuamua,h,09/09.4886/2017,122.6778,24.5997,241.6845,1.199252,0.255240,2000,23.0,2.0
# From MPEC 2020-K19
2I/Borisov,h,12/08.5549/2019,44.0527,308.1480,209.1251,3.356636,2.006548,2000,11.0,4.0
